start=new Date('2022-09-25T00:00:00.000Z').valueOf();
sats=[{"PERIAPSIS":"546.130","MEAN_ELEMENT_THEORY":"SGP4","PERIOD":"95.592","MEAN_ANOMALY":"286.8847","CENTER_NAME":"EARTH","ARG_OF_PERICENTER":"73.2314","SITE":"AFETR","MEAN_MOTION":"15.06398721","OBJECT_TYPE":"PAYLOAD","BSTAR":"0.00009393900000","CLASSIFICATION_TYPE":"U","TLE_LINE1":"1 47171U 20088BB  22267.07123775  .00001118  00000-0  93939-4 0  9997","EPOCH":"2022-09-24T01:42:34.941600","OBJECT_NAME":"STARLINK-1888","LAUNCH_DATE":"2020-11-25","REV_AT_EPOCH":"10167","MEAN_MOTION_DOT":"0.00001118","SEMIMAJOR_AXIS":"6925.352","TIME_SYSTEM":"UTC","ECCENTRICITY":"0.00015700","FILE":"3582188","TLE_LINE2":"2 47171  53.0544 199.7283 0001570  73.2314 286.8847 15.06398721101675","REF_FRAME":"TEME","DECAY_DATE":null,"COUNTRY_CODE":"US","INCLINATION":"53.0544","APOAPSIS":"548.305","MEAN_MOTION_DDOT":"0.0000000000000","OBJECT_ID":"2020-088BB","ELEMENT_SET_NO":"999","RCS_SIZE":"LARGE","EPHEMERIS_TYPE":"0","GP_ID":"213369524","NORAD_CAT_ID":"47171","RA_OF_ASC_NODE":"199.7283"},{"SEMIMAJOR_AXIS":"6925.315","TIME_SYSTEM":"UTC","ECCENTRICITY":"0.00015370","FILE":"3582188","TLE_LINE2":"2 47173  53.0544 209.4809 0001537  49.9295 310.1829 15.06410788101546","REV_AT_EPOCH":"10154","MEAN_MOTION_DOT":"0.00001724","MEAN_MOTION":"15.06410788","OBJECT_TYPE":"PAYLOAD","BSTAR":"0.00013455000000","CLASSIFICATION_TYPE":"U","TLE_LINE1":"1 47173U 20088BD  22267.12928493  .00001724  00000-0  13455-3 0  9992","EPOCH":"2022-09-24T03:06:10.217952","OBJECT_NAME":"STARLINK-1890","LAUNCH_DATE":"2020-11-25","PERIAPSIS":"546.116","CENTER_NAME":"EARTH","PERIOD":"95.591","ARG_OF_PERICENTER":"49.9295","MEAN_ANOMALY":"310.1829","MEAN_ELEMENT_THEORY":"SGP4","SITE":"AFETR","RA_OF_ASC_NODE":"209.4809","RCS_SIZE":"LARGE","EPHEMERIS_TYPE":"0","GP_ID":"213369768","NORAD_CAT_ID":"47173","COUNTRY_CODE":"US","INCLINATION":"53.0544","MEAN_MOTION_DDOT":"0.0000000000000","APOAPSIS":"548.245","ELEMENT_SET_NO":"999","OBJECT_ID":"2020-088BD","DECAY_DATE":null,"REF_FRAME":"TEME"},{"SEMIMAJOR_AXIS":"6925.359","TIME_SYSTEM":"UTC","ECCENTRICITY":"0.00014020","TLE_LINE2":"2 47174  53.0555 209.7084 0001402  74.5600 285.5543 15.06396435101531","FILE":"3582188","REV_AT_EPOCH":"10153","MEAN_MOTION_DOT":"-0.00000037","MEAN_MOTION":"15.06396435","OBJECT_TYPE":"PAYLOAD","BSTAR":"0.00001639900000","CLASSIFICATION_TYPE":"U","TLE_LINE1":"1 47174U 20088BE  22267.07400436 -.00000037  00000-0  16399-4 0  9997","EPOCH":"2022-09-24T01:46:33.976704","OBJECT_NAME":"STARLINK-1891","LAUNCH_DATE":"2020-11-25","PERIAPSIS":"546.254","PERIOD":"95.592","MEAN_ANOMALY":"285.5543","MEAN_ELEMENT_THEORY":"SGP4","CENTER_NAME":"EARTH","ARG_OF_PERICENTER":"74.5600","SITE":"AFETR","RA_OF_ASC_NODE":"209.7084","RCS_SIZE":"LARGE","EPHEMERIS_TYPE":"0","GP_ID":"213369022","NORAD_CAT_ID":"47174","COUNTRY_CODE":"US","INCLINATION":"53.0555","APOAPSIS":"548.195","MEAN_MOTION_DDOT":"0.0000000000000","ELEMENT_SET_NO":"999","OBJECT_ID":"2020-088BE","DECAY_DATE":null,"REF_FRAME":"TEME"},{"MEAN_ANOMALY":"287.5503","PERIOD":"95.592","CENTER_NAME":"EARTH","ARG_OF_PERICENTER":"72.5643","MEAN_ELEMENT_THEORY":"SGP4","PERIAPSIS":"546.197","SITE":"AFETR","CLASSIFICATION_TYPE":"U","BSTAR":"-0.00004772400000","OBJECT_TYPE":"PAYLOAD","MEAN_MOTION":"15.06405954","LAUNCH_DATE":"2020-11-25","OBJECT_NAME":"STARLINK-1895","EPOCH":"2022-09-24T01:43:53.880960","TLE_LINE1":"1 47175U 20088BF  22267.07215140 -.00000992  00000-0 -47724-4 0  9991","MEAN_MOTION_DOT":"-0.00000992","REV_AT_EPOCH":"10181","TIME_SYSTEM":"UTC","SEMIMAJOR_AXIS":"6925.330","FILE":"3582188","TLE_LINE2":"2 47175  53.0545 189.7390 0001442  72.5643 287.5503 15.06405954101813","ECCENTRICITY":"0.00014420","DECAY_DATE":null,"REF_FRAME":"TEME","INCLINATION":"53.0545","COUNTRY_CODE":"US","OBJECT_ID":"2020-088BF","ELEMENT_SET_NO":"999","APOAPSIS":"548.194","MEAN_MOTION_DDOT":"0.0000000000000","EPHEMERIS_TYPE":"0","RCS_SIZE":"LARGE","NORAD_CAT_ID":"47175","GP_ID":"213368773","RA_OF_ASC_NODE":"189.7390"},{"MEAN_MOTION_DOT":"0.00001561","REV_AT_EPOCH":"10168","FILE":"3582188","TLE_LINE2":"2 47177  53.0543 199.5126 0001389  76.7331 283.3813 15.06403378101680","ECCENTRICITY":"0.00013890","TIME_SYSTEM":"UTC","SEMIMAJOR_AXIS":"6925.338","SITE":"AFETR","MEAN_ANOMALY":"283.3813","PERIOD":"95.592","MEAN_ELEMENT_THEORY":"SGP4","CENTER_NAME":"EARTH","ARG_OF_PERICENTER":"76.7331","PERIAPSIS":"546.241","LAUNCH_DATE":"2020-11-25","OBJECT_NAME":"STARLINK-1907","EPOCH":"2022-09-24T02:56:52.813536","TLE_LINE1":"1 47177U 20088BH  22267.12283349  .00001561  00000-0  12366-3 0  9999","CLASSIFICATION_TYPE":"U","BSTAR":"0.00012366000000","OBJECT_TYPE":"PAYLOAD","MEAN_MOTION":"15.06403378","NORAD_CAT_ID":"47177","GP_ID":"213370024","EPHEMERIS_TYPE":"0","RCS_SIZE":"LARGE","RA_OF_ASC_NODE":"199.5126","REF_FRAME":"TEME","DECAY_DATE":null,"OBJECT_ID":"2020-088BH","ELEMENT_SET_NO":"999","MEAN_MOTION_DDOT":"0.0000000000000","APOAPSIS":"548.165","INCLINATION":"53.0543","COUNTRY_CODE":"US"},{"RCS_SIZE":"LARGE","EPHEMERIS_TYPE":"0","GP_ID":"213379594","NORAD_CAT_ID":"47178","RA_OF_ASC_NODE":"207.5094","REF_FRAME":"TEME","DECAY_DATE":null,"COUNTRY_CODE":"US","INCLINATION":"53.0561","APOAPSIS":"548.193","MEAN_MOTION_DDOT":"0.0000000000000","OBJECT_ID":"2020-088BJ","ELEMENT_SET_NO":"999","REV_AT_EPOCH":"10160","MEAN_MOTION_DOT":"0.00001924","SEMIMAJOR_AXIS":"6925.304","TIME_SYSTEM":"UTC","ECCENTRICITY":"0.00014780","FILE":"3582510","TLE_LINE2":"2 47178  53.0561 207.5094 0001478  94.8051 265.3106 15.06414457101601","PERIAPSIS":"546.146","MEAN_ANOMALY":"265.3106","PERIOD":"95.591","CENTER_NAME":"EARTH","ARG_OF_PERICENTER":"94.8051","MEAN_ELEMENT_THEORY":"SGP4","SITE":"AFETR","MEAN_MOTION":"15.06414457","OBJECT_TYPE":"PAYLOAD","BSTAR":"0.00014800000000","CLASSIFICATION_TYPE":"U","TLE_LINE1":"1 47178U 20088BJ  22267.56790723  .00001924  00000-0  14800-3 0  9995","EPOCH":"2022-09-24T13:37:47.184672","OBJECT_NAME":"STARLINK-1912","LAUNCH_DATE":"2020-11-25"},{"OBJECT_ID":"2020-088BK","ELEMENT_SET_NO":"999","MEAN_MOTION_DDOT":"0.0000000000000","APOAPSIS":"548.149","INCLINATION":"53.0542","COUNTRY_CODE":"US","REF_FRAME":"TEME","DECAY_DATE":null,"RA_OF_ASC_NODE":"219.3536","NORAD_CAT_ID":"47179","GP_ID":"213368523","EPHEMERIS_TYPE":"0","RCS_SIZE":"LARGE","LAUNCH_DATE":"2020-11-25","OBJECT_NAME":"STARLINK-1913","EPOCH":"2022-09-24T03:47:18.688416","TLE_LINE1":"1 47179U 20088BK  22267.15785519  .00000222  00000-0  33773-4 0  9999","CLASSIFICATION_TYPE":"U","BSTAR":"0.00003377300000","OBJECT_TYPE":"PAYLOAD","MEAN_MOTION":"15.06398378","SITE":"AFETR","MEAN_ANOMALY":"288.6055","PERIOD":"95.592","MEAN_ELEMENT_THEORY":"SGP4","CENTER_NAME":"EARTH","ARG_OF_PERICENTER":"71.5080","PERIAPSIS":"546.288","FILE":"3582188","TLE_LINE2":"2 47179  53.0542 219.3536 0001344  71.5080 288.6055 15.06398378101401","ECCENTRICITY":"0.00013440","TIME_SYSTEM":"UTC","SEMIMAJOR_AXIS":"6925.354","MEAN_MOTION_DOT":"0.00000222","REV_AT_EPOCH":"10140"},{"RA_OF_ASC_NODE":"189.7794","RCS_SIZE":"LARGE","EPHEMERIS_TYPE":"0","GP_ID":"213369273","NORAD_CAT_ID":"47181","COUNTRY_CODE":"US","INCLINATION":"53.0555","APOAPSIS":"547.797","MEAN_MOTION_DDOT":"0.0000000000000","ELEMENT_SET_NO":"999","OBJECT_ID":"2020-088BM","REF_FRAME":"TEME","DECAY_DATE":null,"SEMIMAJOR_AXIS":"6925.327","TIME_SYSTEM":"UTC","ECCENTRICITY":"0.00008730","FILE":"3582188","TLE_LINE2":"2 47181  53.0555 189.7794 0000873  70.9769 289.1315 15.06406966101809","REV_AT_EPOCH":"10180","MEAN_MOTION_DOT":"0.00000668","MEAN_MOTION":"15.06406966","OBJECT_TYPE":"PAYLOAD","BSTAR":"0.00006374200000","CLASSIFICATION_TYPE":"U","EPOCH":"2022-09-24T01:33:16.896960","TLE_LINE1":"1 47181U 20088BM  22267.06477890  .00000668  00000-0  63742-4 0  9995","OBJECT_NAME":"STARLINK-1927","LAUNCH_DATE":"2020-11-25","PERIAPSIS":"546.588","PERIOD":"95.592","ARG_OF_PERICENTER":"70.9769","MEAN_ELEMENT_THEORY":"SGP4","CENTER_NAME":"EARTH","MEAN_ANOMALY":"289.1315","SITE":"AFETR"},{"MEAN_MOTION_DDOT":"0.0000000000000","APOAPSIS":"548.371","ELEMENT_SET_NO":"999","OBJECT_ID":"2021-005B","COUNTRY_CODE":"US","INCLINATION":"53.0548","DECAY_DATE":null,"REF_FRAME":"TEME","RA_OF_ASC_NODE":"326.0247","GP_ID":"213403689","NORAD_CAT_ID":"47350","RCS_SIZE":"LARGE","EPHEMERIS_TYPE":"0","TLE_LINE1":"1 47350U 21005B   22267.89964495  .00006009  00000-0  42177-3 0  9999","EPOCH":"2022-09-24T21:35:29.323680","OBJECT_NAME":"STARLINK-2011","LAUNCH_DATE":"2021-01-20","MEAN_MOTION":"15.06414099","OBJECT_TYPE":"PAYLOAD","BSTAR":"0.00042177000000","CLASSIFICATION_TYPE":"U","SITE":"AFETR","PERIAPSIS":"545.969","PERIOD":"95.591","CENTER_NAME":"EARTH","MEAN_ELEMENT_THEORY":"SGP4","ARG_OF_PERICENTER":"64.9811","MEAN_ANOMALY":"295.1358","ECCENTRICITY":"0.00017340","FILE":"3582616","TLE_LINE2":"2 47350  53.0548 326.0247 0001734  64.9811 295.1358 15.06414099 92861","SEMIMAJOR_AXIS":"6925.305","TIME_SYSTEM":"UTC","REV_AT_EPOCH":"9286","MEAN_MOTION_DOT":"0.00006009"},{"RA_OF_ASC_NODE":"286.4691","EPHEMERIS_TYPE":"0","RCS_SIZE":"LARGE","GP_ID":"213403940","NORAD_CAT_ID":"47351","COUNTRY_CODE":"US","INCLINATION":"53.0545","APOAPSIS":"548.257","MEAN_MOTION_DDOT":"0.0000000000000","ELEMENT_SET_NO":"999","OBJECT_ID":"2021-005C","DECAY_DATE":null,"REF_FRAME":"TEME","TIME_SYSTEM":"UTC","SEMIMAJOR_AXIS":"6925.339","ECCENTRICITY":"0.00015210","FILE":"3582616","TLE_LINE2":"2 47351  53.0545 286.4691 0001521  77.8707 282.2453 15.06403193 93409","MEAN_MOTION_DOT":"0.00001021","REV_AT_EPOCH":"9340","OBJECT_TYPE":"PAYLOAD","MEAN_MOTION":"15.06403193","CLASSIFICATION_TYPE":"U","BSTAR":"0.00008740900000","OBJECT_NAME":"STARLINK-2017","TLE_LINE1":"1 47351U 21005C   22267.79550228  .00001021  00000-0  87409-4 0  9991","EPOCH":"2022-09-24T19:05:31.396992","LAUNCH_DATE":"2021-01-20","PERIAPSIS":"546.150","CENTER_NAME":"EARTH","PERIOD":"95.592","MEAN_ANOMALY":"282.2453","ARG_OF_PERICENTER":"77.8707","MEAN_ELEMENT_THEORY":"SGP4","SITE":"AFETR"}];
